ONEWEB-0549             
1 56051U 23043F   25166.41600010  .00000094  00000+0  19550-3 0  9996
2 56051  87.9259 317.1390 0002221 101.4686 258.6698 13.21826330109773
ONEWEB-0550             
1 56052U 23043G   25166.40338919 -.00000059  00000+0 -17490-3 0  9996
2 56052  87.9254 317.1361 0001677  94.5819 265.5507 13.21825440109778
ONEWEB-0551             
1 56053U 23043H   25166.40679905 -.00000160  00000+0 -45902-3 0  9992
2 56053  87.9051 332.3528 0001972  99.7721 260.3632 13.15547606108178
ONEWEB-0552             
1 56054U 23043J   25166.39706173  .00000010  00000+0 -66334-5 0  9996
2 56054  87.9255 317.1460 0001935 106.7352 253.3994 13.21828079109772
ONEWEB-0553             
1 56055U 23043K   25166.34460018  .00000012  00000+0 -34694-5 0  9993
2 56055  87.9041 301.8917 0001765  87.5391 272.5942 13.16595034110700
ONEWEB-0554             
1 56056U 23043L   25166.78790753 -.00000245  00000+0 -67474-3 0  9993
2 56056  87.9037 301.8316 0001586 102.2850 257.8459 13.16593972111658
ONEWEB-0555             
1 56057U 23043M   25166.36992938  .00000142  00000+0  33885-3 0  9990
2 56057  87.9044 301.8813 0001842  82.0540 278.0800 13.16593316110695
ONEWEB-0557             
1 56058U 23043N   25166.61217452 -.00000074  00000+0 -22692-3 0  9990
2 56058  87.9039 301.8557 0000776  62.7910 297.3300 13.16596338110726
